,address,bsd,geocodestatus,lat,long,name,notes,renum_monetary,renum_other,street,town,url,zipcode
0,"Sigmund-Freud-Str. 25, 53127 Bonn",hospital,1,50.699239,7.10347,Blutspendedienst des Uniklinikums Bonn (UKB),,25.0,,Sigmund-Freud-Str. 25,Bonn,http://www.ukb.uni-bonn.de/quick2web/internet/internet.nsf/vwWebPagesByID/BA324A3FF82B93F5C12577DC003A0087,53127
1,"Kerpener Str. 62, 50937 Cologne",hospital,1,50.92344825,6.91706144347,Blutspendezentrale der Uniklinik Köln,"25 EUR after second donation, 10 EUR voucher for first donation. Can donate to charity or hospital.",25.0,0.0,Kerpener Str. 62,Cologne,http://transfusionsmedizin.uk-koeln.de/blutspendezentrale,50937
2,"Obere Zahlbacher Str. 67, 55131 Mainz",hospital,1,49.992815,8.262684,Transfusionszentrale der Universitätsmedizin der Johannes Gutenberg-Universität Mainz,,,,Obere Zahlbacher Str. 67,Mainz,https://www.unimedizin-mainz.de/transfusionszentrale/blutspender/uebersicht.html,55131
3,"Burgweg 5, 55543 Bad Kreuznach",west,1,49.8245531,7.8473283,DRK Zentrum für Transfusionsmedizin Bad Kreuznach,,0.0,,Burgweg 5,Bad Kreuznach,https://blutspende.blutspendedienst-west.de/blutspendezentren/blutspendezentrum-bad-kreuznach,55543
4,"Linneper Weg 1, 40885 Ratingen",west,1,51.3547445,6.86765029599,DRK Zentrum für Transfusionsmedizin Breitscheid,,0.0,,Linneper Weg 1,Ratingen,https://blutspende.blutspendedienst-west.de/blutspendezentren/blutspendezentrum-breitscheid,40885
5,"Westenhellweg 85, 44137 Dortmund",west,1,51.5142268,7.4591069,DRK-Blutspendecenter Dortmund,,0.0,,Westenhellweg 85,Dortmund,https://blutspende.blutspendedienst-west.de/blutspendezentren/blutspendezentrum-dortmund,44137
6,"Kettwiger Str. 5, 45127 Essen",west,1,51.4535974,7.0127366,DRK-Blutspendezentrum Essen,,0.0,,Kettwiger Str. 5,Essen,https://blutspende.blutspendedienst-west.de/blutspendezentren/blutspendezentrum-essen,45127
7,"Feithstr. 184 , 58097 Hagen",west,1,51.3821791,7.4830005,DRK Zentrum für Transfusionsmedizin Hagen,,0.0,,Feithstr. 184 ,Hagen,https://blutspende.blutspendedienst-west.de/blutspendezentren/blutspendezentrum-hagen,58097
8,"Neumarkt 1d , 50667 Köln",west,1,50.9358387,6.949425,DRK-Blutspendezentrum Köln,,0.0,,Neumarkt 1d ,Köln,https://blutspende.blutspendedienst-west.de/blutspendezentren/blutspendezentrum-koeln,50667
9,"Sperlichstr. 15, 48151 Münster",west,1,51.94693,7.61283,DRK Zentrum für Transfusionsmedizin Münster,,0.0,,Sperlichstr. 15,Münster,https://blutspende.blutspendedienst-west.de/blutspendezentren/blutspendezentrum-muenster,48151
10,"Klarissengasse 9, 48151 Münster",west,1,51.9598209,7.6286288,City-Blutspende Münster,,0.0,,Klarissengasse 9,Münster,https://blutspende.blutspendedienst-west.de/blutspendezentren/blutspendezentrum-muenster-city,48151
11,"Heldmanstr. 45 , 32108 Bad Salzuflen",west,1,52.0742819,8.7644385,DRK-Blutspendezentrum Bad Salzuflen,,0.0,,Heldmanstr. 45 ,Bad Salzuflen,https://blutspende.blutspendedienst-west.de/blutspendezentren/Blutspendezentrum-bad-salzuflen,32108
12,"Poststr. 19, 53111 Bonn",haema,1,50.7335994,7.0978812,Haema Blutspendezentrum Bonn,,,,Poststr. 19,Bonn,https://www.haema.de/blutspendezentren/nordrhein-westfalen/bonn.html,53111
13,"Ostenhellweg 50, 44135 Dortmund",haema,1,51.5145216,7.47146226983,Haema Blutspendezentrum Dortmund,,,,Ostenhellweg 50,Dortmund,https://www.haema.de/blutspendezentren/nordrhein-westfalen/dortmund.html,44135
14,"Kettwiger Str. 64, 45127 Essen",haema,1,51.4576535,7.0128425,Haema Blutspendezentrum Essen,,,,Kettwiger Str. 64,Essen,https://www.haema.de/blutspendezentren/nordrhein-westfalen/essen.html,45127
15,"Westring 2, 59065 Hamm",haema,1,51.6807144,7.8132484,Haema Blutspendezentrum Hamm,,,,Westring 2,Hamm,https://www.haema.de/blutspendezentren/nordrhein-westfalen/hamm/,59065
16,"Dachauer Str. 70, 80335 Munich",haema,1,48.1491258,11.5588156,Haema Blutspendezentrum München,,,,Dachauer Str. 70,Munich,https://www.haema.de/blutspendezentren/bayern/muenchen.html,80335
17,"Hildegard-von-Bingen-Str. 1, 93053 Regensburg",haema,1,49.0059043,12.1193626,Haema Blutspendezentrum Regensburg,,,,Hildegard-von-Bingen-Str. 1,Regensburg,https://www.haema.de/blutspendezentren/bayern/regensburg.html,93053
18,"Oststr. 51, 99867 Gotha",haema,1,50.9531466,10.7139725,Haema Blutspendezentrum Gotha,,,,Oststr. 51,Gotha,https://www.haema.de/blutspendezentren/thueringen/gotha/,99867
19,"Lachsgasse 3, 99084 Erfurt",haema,1,50.9737008,11.0325981,Haema Blutspendezentrum Erfurt,,,,Lachsgasse 3,Erfurt,https://www.haema.de/blutspendezentren/thueringen/erfurt.html,99084
20,"Breitscheidstr. 1, 07545 Gera",haema,1,50.8768085,12.0797538,Haema Blutspendezentrum Gera,,,,Breitscheidstr. 1,Gera,https://www.haema.de/blutspendezentren/thueringen/gera/?nomob=1,7545
21,"Goethestr. 3a, 07743 Jena",haema,1,50.9274075,11.5823877,Haema Blutspendezentrum Jena,,,,Goethestr. 3a,Jena,https://www.haema.de/blutspendezentren/thueringen/jena/,7743
22,"Steubenstr. 15, 99423 Weimar",haema,1,50.97736765,11.3251801307,Haema Blutspendezentrum Weimar,,,,Steubenstr. 15,Weimar,https://www.haema.de/blutspendezentren/thueringen/weimar.html?nomob=1,99423
23,"Sandstr. 1, 23552 Lübeck",haema,1,53.8653982,10.6863445,Haema Blutspendezentrum Lübeck,,,,Sandstr. 1,Lübeck,https://www.haema.de/blutspendezentren/schleswig-holstein/luebeck.html,23552
24,"Neustädter Passage 17 A, 06122 Halle (Saale)",haema,1,51.480749,11.9246378,Haema Blutspendezentrum Halle (Saale),,,,Neustädter Passage 17 A,Halle (Saale),https://www.haema.de/blutspendezentren/sachsen-anhalt/hallesaale.html?nomob=1,6122
25,"Markt 5, 09111 Chemnitz",haema,1,50.8319067,12.9190993,Haema Blutspendezentrum Chemnitz,,,,Markt 5,Chemnitz,https://www.haema.de/blutspendezentren/sachsen/chemnitz.html,9111
26,"Rosenstr. 30, 01067 Dresden",haema,1,51.0480137,13.7239784,Haema Blutspendezentrum Dresden-World Trade Center,,,,Rosenstr. 30,Dresden,https://www.haema.de/blutspendezentren/sachsen/dresden-world-trade-center.html,1067
27,"Fetscherplatz 2a, 01307 Dresden",haema,1,51.0465316,13.7705913,Haema Blutspendezentrum Dresden-Fetscherplatz,,,,Fetscherplatz 2a,Dresden,https://www.haema.de/blutspendezentren/sachsen/dresden-fetscherplatz.html?nomob=1,1307
28,"Bahnhofstr. 40, 09599 Freiberg",haema,1,50.9115131,13.3448523,Haema Blutspendezentrum Freiberg,,,,Bahnhofstr. 40,Freiberg,https://www.haema.de/blutspendezentren/sachsen/freiberg/,9599
29," An der Frauenkirche 12, 02826 Görlitz",haema,1,51.1525857,14.9870149,Haema Blutspendezentrum Görlitz,,,, An der Frauenkirche 12,Görlitz,https://www.haema.de/blutspendezentren/sachsen/goerlitz.html,2826
30,"Käthe-Kollwitz-Str. 6, 04668 Grimma",haema,1,51.2382437,12.7173986,Haema Blutspendezentrum Grimma,,,,Käthe-Kollwitz-Str. 6,Grimma,https://www.haema.de/blutspendezentren/sachsen/grimma/,4668
31,"Markt 9, 04109 Leipzig",haema,1,51.3409947,12.3735653,Haema Blutspendezentrum Leipzig-Markt,,,,Markt 9,Leipzig,https://www.haema.de/blutspendezentren/sachsen/leipzig-markt/?nomob=1,4109
32,"Lützowstr. 11, 04155 Leipzig",haema,1,51.3621369,12.3709063,Haema Blutspendezentrum Leipzig-Gohlis Arkaden,,,,Lützowstr. 11,Leipzig,https://www.haema.de/blutspendezentren/sachsen/leipzig-gohlis-arkaden/,4155
33,"Karl-Liebknecht-Str. 153, 04277 Leipzig",haema,1,51.31194465,12.3736599041,Haema Blutspendezentrum Leipzig-Connewitz,,,,Karl-Liebknecht-Str. 153,Leipzig,https://www.haema.de/blutspendezentren/sachsen/leipzig-connewitz/,4277
34,"Oberer Steinweg 10, 08523 Plauen",haema,1,50.4946578,12.1375934,Haema Blutspendezentrum Plauen,,,,Oberer Steinweg 10,Plauen,https://www.haema.de/blutspendezentren/sachsen/plauen/,8523
35,"Marienstr. 3, 08056 Zwickau",haema,1,50.717811,12.4957548,Haema Blutspendezentrum Zwickau,,,,Marienstr. 3,Zwickau,https://www.haema.de/blutspendezentren/sachsen/zwickau.html,8056
36,"DEUTSCHE-MED-Platz 2, 18057 Rostock",haema,1,54.0861107,12.1246056,Haema Blutspendezentrum Rostock,,,,DEUTSCHE-MED-Platz 2,Rostock,https://www.haema.de/blutspendezentren/mecklenburg-vorpommern/rostock.html?nomob=1,18057
37,"Friedrichstr. 18, 19055 Schwerin",haema,1,53.63041185,11.4150712236,Haema Blutspendezentrum Schwerin,,,,Friedrichstr. 18,Schwerin,https://www.haema.de/blutspendezentren/mecklenburg-vorpommern/schwerin.html,19055
38,"Nuthestr. 1, 14480 Potsdam",haema,1,52.3729102,13.1185753,Haema Blutspendezentrum Potsdam,,,,Nuthestr. 1,Potsdam,https://www.haema.de/blutspendezentren/brandenburg/potsdam.html,14480
39,"Karl-Marx-Str. 2, 15230 Frankfurt (Oder)",haema,1,52.3489333,14.5498663,Haema Blutspendezentrum Frankfurt (Oder),,,,Karl-Marx-Str. 2,Frankfurt (Oder),https://www.haema.de/blutspendezentren/brandenburg/frankfurt-oder.html,15230
40,"Kirchhofstr. 1, 14776 Brandenburg an der Havel",haema,1,52.4044826,12.5615151,Haema Blutspendezentrum Brandenburg an der Havel,,,,Kirchhofstr. 1,Brandenburg an der Havel,,14776
41,"Wilmersdorfer Str. 54, 10627 Berlin",haema,1,52.5084565,13.3059737,Haema Blutspendezentrum Berlin-Charlottenburg,,,,Wilmersdorfer Str. 54,Berlin,https://www.haema.de/blutspendezentren/berlin/berlin-charlottenburg.html?nomob=1,10627
42,"Peter-Weiss-Gasse 1, 12627 Berlin",haema,1,52.5374189,13.6055877,Haema Blutspendezentrum Berlin-Hellersdorf,,,,Peter-Weiss-Gasse 1,Berlin,https://www.haema.de/blutspendezentren/berlin/berlin-hellersdorf/,12627
43,"Havemannstr. 12b, 12689 Berlin",haema,1,52.5689885,13.5691683,Haema Blutspendezentrum Berlin-Marzahn,,,,Havemannstr. 12b,Berlin,https://www.haema.de/blutspendezentren/berlin/berlin-marzahn/,12689
44,"Landsberger Allee 117, 10407 Berlin",haema,1,52.5294787,13.4547689,Haema Blutspendezentrum Berlin-Prenzlauer Berg,,,,Landsberger Allee 117,Berlin,https://www.haema.de/blutspendezentren/berlin/berlin-prenzlauer-berg/,10407
45,"Berliner Str. 25, 13507 Berlin",haema,1,52.5838851,13.2884379,Haema Blutspendezentrum Berlin-Tegel,,,,Berliner Str. 25,Berlin,https://www.haema.de/blutspendezentren/berlin/berlin-tegel/,13507
46,"Badstr. 4a, 13357 Berlin",haema,1,52.5493764,13.3881065,Haema Blutspendezentrum Berlin-Wedding,,,,Badstr. 4a,Berlin,https://www.haema.de/blutspendezentren/berlin/berlin-wedding/,13357
